[{"OBJECT_NAME":"CHUANGXIN 1-03 (CX-1-03)","OBJECT_ID":"2011-068A","EPOCH":"2026-03-09T23:48:05.343264","MEAN_MOTION":14.30514213,"ECCENTRICITY":0.00158467,"INCLINATION":98.7066,"RA_OF_ASC_NODE":86.521,"ARG_OF_PERICENTER":50.1728,"MEAN_ANOMALY":9.9604,"EPHEMERIS_TYPE":0,"CLASSIFICATION_TYPE":"U","NORAD_CAT_ID":37930,"ELEMENT_SET_NO":999,"REV_AT_EPOCH":74647,"BSTAR":-1.9220958e-5,"MEAN_MOTION_DOT":-9.5e-7,"MEAN_MOTION_DDOT":0},{"OBJECT_NAME":"CZ-6A DEB","OBJECT_ID":"2024-140GA","EPOCH":"2026-03-09T12:43:04.460736","MEAN_MOTION":14.53646129,"ECCENTRICITY":0.01116027,"INCLINATION":88.9535,"RA_OF_ASC_NODE":279.2826,"ARG_OF_PERICENTER":235.0625,"MEAN_ANOMALY":124.0062,"EPHEMERIS_TYPE":0,"CLASSIFICATION_TYPE":"U","NORAD_CAT_ID":60799,"ELEMENT_SET_NO":999,"REV_AT_EPOCH":8344,"BSTAR":0.00012881047,"MEAN_MOTION_DOT":6.02e-6,"MEAN_MOTION_DDOT":0}]
